{
    "links": {
        "self": "http://www.neowsapp.com/rest/v1/neo/3709604?api_key=iIulBulltgU6a56xZRHN4H3l9WmuAYTsLGpBGhQ2"
    },
    "id": "3709604",
    "neo_reference_id": "3709604",
    "name": "(2015 BN515)",
    "designation": "2015 BN515",
    "nasa_jpl_url": "http://ssd.jpl.nasa.gov/sbdb.cgi?sstr=3709604",
    "absolute_magnitude_h": 22.8,
    "estimated_diameter": {
        "kilometers": {
            "estimated_diameter_min": 0.0732073989,
            "estimated_diameter_max": 0.1636967205
        },
        "meters": {
            "estimated_diameter_min": 73.2073989347,
            "estimated_diameter_max": 163.696720474
        },
        "miles": {
            "estimated_diameter_min": 0.0454889547,
            "estimated_diameter_max": 0.1017163949
        },
        "feet": {
            "estimated_diameter_min": 240.181762721,
            "estimated_diameter_max": 537.0627483999
        }
    },
    "is_potentially_hazardous_asteroid": false,
    "close_approach_data": [
        {
            "close_approach_date": "2015-02-08",
            "close_approach_date_full": "2015-Feb-08 20:44",
            "epoch_date_close_approach": 1423428240000,
            "relative_velocity": {
                "kilometers_per_second": "2.2808146296",
                "kilometers_per_hour": "8210.9326665368",
                "miles_per_hour": "5101.9542449378"
            },
            "miss_distance": {
                "astronomical": "0.3284747762",
                "lunar": "127.7766879418",
                "kilometers": "49139126.868246694",
                "miles": "30533637.5723406172"
            },
            "orbiting_body": "Earth"
        }
    ],
    "orbital_data": {
        "orbit_id": "3",
        "orbit_determination_date": "2017-04-06 08:35:55",
        "first_observation_date": "2015-01-27",
        "last_observation_date": "2015-02-08",
        "data_arc_in_days": 12,
        "observations_used": 17,
        "orbit_uncertainty": "8",
        "minimum_orbit_intersection": ".314368",
        "jupiter_tisserand_invariant": "3.199",
        "epoch_osculation": "2457053.5",
        "eccentricity": ".5082845538645534",
        "semi_major_axis": "2.631708273240101",
        "inclination": "3.989471359010201",
        "ascending_node_longitude": "22.1789169178517",
        "orbital_period": "1559.391079467313",
        "perihelion_distance": "1.294051607674602",
        "perihelion_argument": "119.6007212357026",
        "aphelion_distance": "3.9693649388056",
        "perihelion_time": "2457070.080058524829",
        "mean_anomaly": "356.1723385829696",
        "mean_motion": ".2308593429449242",
        "equinox": "J2000",
        "orbit_class": {
            "orbit_class_type": "AMO",
            "orbit_class_description": "Near-Earth asteroid orbits similar to that of 1221 Amor",
            "orbit_class_range": "1.017 AU < q (perihelion) < 1.3 AU"
        }
    },
    "is_sentry_object": false
}